satname,norad_id,inclination_deg,eccentricity,mean_motion_rev_per_day,perigee_km,apogee_km,l1,l2
STARLINK-1522,46027,53.0543,0.0001426,15.06396491,546.2347563007961,548.209868776733,1 46027U 20055A   26042.55505514  .00000074  00000+0  23898-4 0  9999,2 46027  53.0543 243.9361 0001426  96.8279 263.2872 15.06396491304947
STARLINK-1523,46028,53.0535,0.0001261,15.06398896,546.3416546615108,548.0882284211675,1 46028U 20055B   26041.83997958  .00000222  00000+0  33787-4 0  9990,2 46028  53.0535 247.1516 0001261  94.7046 265.4087 15.06398896304856
STARLINK-1526,46029,53.0539,0.0001679,15.06408558,546.0225674059857,548.3480906440736,1 46029U 20055C   26041.83261735  .00002790  00000+0  20609-3 0  9998,2 46029  53.0539 247.1831 0001679  90.9081 269.2101 15.06408558304846
STARLINK-1555,46032,53.0553,0.0001403,15.0640142,546.2355800541336,548.1788316382936,1 46032U 20055F   26042.54767798  .00001235  00000+0  10181-3 0  9998,2 46032  53.0553 243.9740 0001403  83.2246 276.8902 15.06401420304958
STARLINK-1556,46033,53.0549,0.0001456,15.06401013,546.2001229429243,548.2167835389082,1 46033U 20055G   26040.87057641  .00000005  00000+0  19221-4 0  9991,2 46033  53.0549 251.4995 0001456  90.5329 269.5827 15.06401013304673
STARLINK-1557,46034,53.055,0.0001622,15.06401092,546.0849201243327,548.3315021108183,1 46034U 20055H   26042.53293554 -.00000772  00000+0 -32942-4 0  9990,2 46034  53.0550 244.0378 0001622 108.8885 251.2280 15.06401092304920
STARLINK-1558,46035,53.0538,0.0001754,15.06403599,545.9858233412579,548.4152317459211,1 46035U 20055J   26041.81049188  .00000009  00000+0  19475-4 0  9990,2 46035  53.0538 247.2759 0001754  99.0439 261.0748 15.06403599304840
STARLINK-1560,46036,53.0552,0.0001308,15.06393086,546.3269100704329,548.1385867966237,1 46036U 20055K   26042.52558525  .00001635  00000+0  12862-3 0  9998,2 46036  53.0552 244.0726 0001308  89.9016 270.2123 15.06393086304950
STARLINK-1567,46038,53.0557,0.0001464,15.0640017,546.1971659602068,548.224907865414,1 46038U 20055M   26042.53662292  .00000052  00000+0  22362-4 0  9997,2 46038  53.0557 244.0217 0001464  99.1043 261.0112 15.06400170304946
STARLINK-1569,46039,53.056,0.0001771,15.06391623,546.010748579195,548.4637161322953,1 46039U 20055N   26041.81418427  .00000870  00000+0  77326-4 0  9995,2 46039  53.0560 247.2645 0001771  92.2038 267.9153 15.06391623304830
STARLINK-1582,46043,53.054,0.0001312,15.06402169,546.2963054150196,548.1135151322751,1 46043U 20055S   26042.55136645  .00000753  00000+0  69449-4 0  9998,2 46043  53.0540 243.9553 0001312  95.0270 265.0868 15.06402169304946
STARLINK-1591,46045,53.0549,0.0001473,15.06399677,546.1924438985316,548.2326518753389,1 46045U 20055U   26042.51082380  .00000272  00000+0  37175-4 0  9999,2 46045  53.0549 244.1383 0001473  96.9416 263.1740 15.06399677304926
STARLINK-1524,46047,53.0551,0.0001392,15.06397603,546.2548948658941,548.1829139496813,1 46047U 20055W   26040.87150491  .00001428  00000+0  11472-3 0  9992,2 46047  53.0551 241.4997 0001392  96.0031 264.1116 15.06397603304831
STARLINK-1527,46048,53.0557,0.0001462,15.06394748,546.2151662961141,548.2401429211222,1 46048U 20055X   26042.52649008 -.00000461  00000+0 -12029-4 0  9992,2 46048  53.0557 234.0674 0001462  93.9023 266.2134 15.06394748305069
STARLINK-1540,46051,53.0563,0.000147,15.06398602,546.1978157423782,548.2338694781056,1 46051U 20055AA  26041.82983963 -.00001118  00000+0 -56179-4 0  9993,2 46051  53.0563 237.1932 0001470  81.4092 278.7063 15.06398602304991
STARLINK-1541,46052,53.0674,0.0002238,15.10013477,534.6114428926385,537.7062817206079,1 46052U 20055AB  26042.58335648  .00039158  00000+0  23867-2 0  9998,2 46052  53.0674 233.7789 0002238 104.4467 122.7219 15.10013477  5833
STARLINK-1543,46053,53.0562,0.0001698,15.06403114,546.02609142864,548.377936557793,1 46053U 20055AC  26042.54859668  .00000897  00000+0  79120-4 0  9991,2 46053  53.0562 233.9701 0001698 101.9701 258.1479 15.06403114305097
STARLINK-1548,46054,53.0563,0.0001045,15.06566692,545.9770725306898,547.4243636137671,1 46054U 20055AD  26042.55578686  .00020343  00000+0  13745-2 0  9998,2 46054  53.0563 233.9375 0001045  55.0293 305.0795 15.06566692305091
STARLINK-1554,46055,53.0556,0.0001019,15.07106238,544.3424129431605,545.753358022821,1 46055U 20055AE  26042.60714118  .00173242  00000+0  11152-1 0  9993,2 46055  53.0556 233.6983 0001019  59.2015 300.9075 15.07106238305109
STARLINK-1564,46058,53.0549,0.0001412,15.06414719,546.1885938438481,548.1442995371935,1 46058U 20055AH  26042.55232575  .00002530  00000+0  18863-3 0  9991,2 46058  53.0549 234.4157 0001412  77.0674 283.0472 15.06414719305086
STARLINK-1570,46059,53.055,0.0001459,15.06404101,546.1885824716501,548.2093955132377,1 46059U 20055AJ  26042.51542882 -.00001526  00000+0 -83555-4 0  9990,2 46059  53.0550 234.1163 0001459 120.6662 239.4471 15.06404101305040
STARLINK-1572,46060,53.0559,0.0001349,15.06397876,546.283837301381,548.1522980986465,1 46060U 20055AK  26041.84827397  .00001769  00000+0  13763-3 0  9994,2 46060  53.0559 237.1128 0001349  94.6297 265.4846 15.06397876304951
STARLINK-1573,46061,53.0546,0.000144,15.06403703,546.2029602417888,548.1974573579228,1 46061U 20055AL  26041.84459508  .00002312  00000+0  17402-3 0  9999,2 46061  53.0546 237.1676 0001440  85.5564 274.5589 15.06403703304989
STARLINK-1577,46063,53.0548,0.0001359,15.06401868,546.2646787022586,548.1469868842114,1 46063U 20055AN  26041.80403734  .00001994  00000+0  15273-3 0  9996,2 46063  53.0548 237.3162 0001359  89.8683 270.2462 15.06401868304975
STARLINK-1583,46064,53.0544,0.0001311,15.06400565,546.3019133262651,548.1177392641202,1 46064U 20055AP  26042.50068511  .00000202  00000+0  32451-4 0  9994,2 46064  53.0544 234.1828 0001311  93.0693 267.0446 15.06400565305084
STARLINK-1525,46066,53.0558,0.0001256,15.06382141,546.3964630881801,548.136124395568,1 46066U 20055AR  26042.63153734  .00001534  00000+0  12190-3 0  9998,2 46066  53.0558 213.5968 0001256  95.5015 264.6118 15.06382141305370
STARLINK-1536,46070,53.0556,0.0001303,15.06400645,546.3072084473606,548.1119537663972,1 46070U 20055AV  26041.68055848  .00001903  00000+0  14659-3 0  9996,2 46070  53.0556 217.8660 0001303  87.1661 272.9477 15.06400645305242
STARLINK-1542,46073,53.0562,0.0001379,15.06407275,546.2342587093826,548.1442636922211,1 46073U 20055AY  26042.46934346  .00001873  00000+0  14459-3 0  9999,2 46073  53.0562 214.3238 0001379  82.5200 277.5946 15.06407275305356
